{"type": "FeatureCollection", "features": [{"id": "0", "type": "Feature", "properties": {}, "geometry": {"type": "MultiPolygon", "coordinates": [[[[-117.1598, 34.0536], [-117.157, 34.0587], [-117.1594, 34.0638], [-117.1655, 34.0661], [-117.1717, 34.0642], [-117.1744, 34.0591], [-117.1721, 34.0539], [-117.166, 34.0516], [-117.1598, 34.0536]]], [[[-117.1785, 34.0538], [-117.1759, 34.0603], [-117.1809, 34.0657], [-117.1851, 34.0663], [-117.1898, 34.0648], [-117.1937, 34.067], [-117.1979, 34.0673], [-117.2044, 34.0631], [-117.2046, 34.0576], [-117.2, 34.0535], [-117.1959, 34.0529], [-117.1912, 34.0544], [-117.1848, 34.0518], [-117.1785, 34.0538]]], [[[-117.1992, 33.759], [-117.197, 33.7642], [-117.2, 33.7692], [-117.2063, 33.771], [-117.2123, 33.7685], [-117.2144, 33.7633], [-117.2114, 33.7583], [-117.2051, 33.7565], [-117.1992, 33.759]]], [[[-117.2239, 33.78], [-117.2212, 33.7851], [-117.2235, 33.7903], [-117.2296, 33.7925], [-117.2358, 33.7906], [-117.2385, 33.7855], [-117.2362, 33.7803], [-117.2301, 33.778], [-117.2239, 33.78]]], [[[-117.2544, 34.0682], [-117.2517, 34.0733], [-117.2541, 34.0785], [-117.2601, 34.0808], [-117.2664, 34.0788], [-117.2691, 34.0737], [-117.2667, 34.0685], [-117.2607, 34.0662], [-117.2544, 34.0682]]], [[[-117.29, 34.0942], [-117.2873, 34.1], [-117.2917, 34.1058], [-117.2966, 34.1067], [-117.3014, 34.1052], [-117.3037, 34.1095], [-117.309, 34.1117], [-117.314, 34.111], [-117.3177, 34.1081], [-117.3185, 34.1026], [-117.3144, 34.0982], [-117.3095, 34.0973], [-117.3047, 34.0988], [-117.3024, 34.0945], [-117.298, 34.0924], [-117.29, 34.0942]]], [[[-117.3278, 33.9927], [-117.3257, 33.998], [-117.3282, 34.0037], [-117.3343, 34.006], [-117.3405, 34.004], [-117.3432, 33.999], [-117.3407, 33.9925], [-117.3338, 33.9903], [-117.3278, 33.9927]]], [[[-117.3739, 33.1873], [-117.3713, 33.1924], [-117.3736, 33.1975], [-117.3796, 33.1998], [-117.3858, 33.1978], [-117.3885, 33.1928], [-117.3861, 33.1876], [-117.3801, 33.1853], [-117.3739, 33.1873]]], [[[-117.3633, 33.9708], [-117.3612, 33.9761], [-117.3642, 33.981], [-117.3705, 33.9828], [-117.3765, 33.9803], [-117.3786, 33.975], [-117.3756, 33.9701], [-117.3693, 33.9683], [-117.3633, 33.9708]]], [[[-117.3653, 34.092], [-117.3632, 34.0973], [-117.3662, 34.1023], [-117.3725, 34.104], [-117.3785, 34.1015], [-117.3806, 34.0963], [-117.3776, 34.0913], [-117.3713, 34.0896], [-117.3653, 34.092]]], [[[-117.4321, 34.0899], [-117.4294, 34.095], [-117.4318, 34.1002], [-117.4379, 34.1024], [-117.4441, 34.1004], [-117.4468, 34.0954], [-117.4444, 34.0902], [-117.4383, 34.0879], [-117.4321, 34.0899]]], [[[-117.4642, 33.8947], [-117.4615, 33.8997], [-117.4639, 33.9049], [-117.47, 33.9072], [-117.4762, 33.9052], [-117.4789, 33.9001], [-117.4765, 33.8949], [-117.4704, 33.8927], [-117.4642, 33.8947]]], [[[-117.4697, 33.9734], [-117.4676, 33.9786], [-117.4706, 33.9836], [-117.4769, 33.9854], [-117.4829, 33.9829], [-117.485, 33.9776], [-117.482, 33.9726], [-117.4757, 33.9709], [-117.4697, 33.9734]]], [[[-117.5569, 33.8774], [-117.5548, 33.8827], [-117.5578, 33.8877], [-117.5641, 33.8894], [-117.57, 33.8869], [-117.5721, 33.8817], [-117.5691, 33.8767], [-117.5628, 33.875], [-117.5569, 33.8774]]], [[[-117.5539, 34.0866], [-117.5512, 34.0917], [-117.5536, 34.0968], [-117.5597, 34.0991], [-117.5659, 34.0971], [-117.5687, 34.092], [-117.5663, 34.0869], [-117.5602, 34.0846], [-117.5539, 34.0866]]], [[[-117.5735, 34.0347], [-117.5708, 34.0397], [-117.5732, 34.0449], [-117.5793, 34.0472], [-117.5855, 34.0452], [-117.5882, 34.0401], [-117.5858, 34.0349], [-117.5797, 34.0327], [-117.5735, 34.0347]]], [[[-117.6136, 33.4142], [-117.611, 33.4193], [-117.6133, 33.4245], [-117.6194, 33.4267], [-117.6256, 33.4247], [-117.6282, 33.4197], [-117.6259, 33.4145], [-117.6198, 33.4122], [-117.6136, 33.4142]]], [[[-117.6076, 33.8805], [-117.6049, 33.8856], [-117.6073, 33.8908], [-117.6134, 33.893], [-117.6196, 33.891], [-117.6223, 33.8859], [-117.6199, 33.8808], [-117.6138, 33.8785], [-117.6076, 33.8805]]], [[[-117.6262, 33.4273], [-117.6241, 33.4326], [-117.6271, 33.4376], [-117.6334, 33.4393], [-117.6393, 33.4368], [-117.6414, 33.4315], [-117.6384, 33.4266], [-117.6321, 33.4248], [-117.6262, 33.4273]]], [[[-117.6571, 33.4967], [-117.6551, 33.5019], [-117.658, 33.5069], [-117.6643, 33.5086], [-117.6702, 33.5061], [-117.6723, 33.5009], [-117.6693, 33.4959], [-117.6631, 33.4942], [-117.6571, 33.4967]]], [[[-117.6415, 34.0892], [-117.6388, 34.0943], [-117.6412, 34.0995], [-117.6473, 34.1018], [-117.6535, 34.0998], [-117.6562, 34.0947], [-117.6538, 34.0895], [-117.6477, 34.0872], [-117.6415, 34.0892]]], [[[-117.6684, 33.5492], [-117.6664, 33.5544], [-117.6693, 33.5594], [-117.6756, 33.5611], [-117.6816, 33.5586], [-117.6836, 33.5534], [-117.6807, 33.5484], [-117.6744, 33.5467], [-117.6684, 33.5492]]], [[[-117.689, 34.0893], [-117.6869, 34.0946], [-117.6899, 34.0996], [-117.6962, 34.1013], [-117.7022, 34.0988], [-117.7043, 34.0936], [-117.7013, 34.0886], [-117.6949, 34.0869], [-117.689, 34.0893]]], [[[-117.7097, 34.0891], [-117.7077, 34.0944], [-117.7107, 34.0994], [-117.717, 34.1011], [-117.723, 34.0986], [-117.7251, 34.0933], [-117.722, 34.0884], [-117.7157, 34.0867], [-117.7097, 34.0891]]], [[[-117.7269, 33.6518], [-117.7243, 33.6569], [-117.7267, 33.6621], [-117.7327, 33.6643], [-117.7389, 33.6623], [-117.7416, 33.6572], [-117.7392, 33.652], [-117.7331, 33.6498], [-117.7269, 33.6518]]], [[[-117.7439, 34.054], [-117.7419, 34.0593], [-117.7449, 34.0643], [-117.7512, 34.066], [-117.7572, 34.0635], [-117.7592, 34.0582], [-117.7562, 34.0533], [-117.7499, 34.0515], [-117.7439, 34.054]]], [[[-117.7516, 34.0865], [-117.7462, 34.0888], [-117.7437, 34.0924], [-117.7441, 34.0966], [-117.7472, 34.0999], [-117.7537, 34.1011], [-117.7595, 34.0985], [-117.7624, 34.1027], [-117.7679, 34.1045], [-117.7752, 34.1014], [-117.7767, 34.096], [-117.7731, 34.0913], [-117.7674, 34.09], [-117.7616, 34.0923], [-117.7581, 34.0877], [-117.7516, 34.0865]]], [[[-117.8, 33.7027], [-117.7973, 33.7078], [-117.7997, 33.713], [-117.8058, 33.7152], [-117.812, 33.7132], [-117.8147, 33.7081], [-117.8123, 33.703], [-117.8062, 33.7007], [-117.8, 33.7027]]], [[[-117.7998, 34.1], [-117.7971, 34.105], [-117.7995, 34.1102], [-117.8056, 34.1125], [-117.8118, 34.1104], [-117.8145, 34.1054], [-117.8121, 34.1002], [-117.806, 34.0979], [-117.7998, 34.1]]], [[[-117.8345, 33.8489], [-117.8318, 33.854], [-117.8342, 33.8592], [-117.8403, 33.8614], [-117.8465, 33.8594], [-117.8492, 33.8543], [-117.8468, 33.8492], [-117.8407, 33.8469], [-117.8345, 33.8489]]], [[[-117.8396, 34.0027], [-117.8369, 34.0078], [-117.8393, 34.0129], [-117.8454, 34.0152], [-117.8516, 34.0132], [-117.8543, 34.0081], [-117.8519, 34.0029], [-117.8458, 34.0007], [-117.8396, 34.0027]]], [[[-117.85, 33.7463], [-117.8473, 33.7514], [-117.8497, 33.7565], [-117.8558, 33.7588], [-117.862, 33.7568], [-117.8647, 33.7517], [-117.8623, 33.7465], [-117.8562, 33.7443], [-117.85, 33.7463]]], [[[-117.8507, 33.7841], [-117.8486, 33.7893], [-117.8516, 33.7943], [-117.858, 33.796], [-117.8639, 33.7935], [-117.866, 33.7882], [-117.863, 33.7833], [-117.8566, 33.7815], [-117.8507, 33.7841]]], [[[-117.8597, 34.1272], [-117.8576, 34.1324], [-117.8606, 34.1374], [-117.867, 34.1391], [-117.8729, 34.1366], [-117.875, 34.1314], [-117.872, 34.1264], [-117.8656, 34.1247], [-117.8597, 34.1272]]], [[[-117.872, 33.7973], [-117.8693, 33.8024], [-117.8717, 33.8076], [-117.8778, 33.8098], [-117.884, 33.8078], [-117.8867, 33.8027], [-117.8843, 33.7976], [-117.8782, 33.7953], [-117.872, 33.7973]]], [[[-117.8823, 34.0874], [-117.8802, 34.0927], [-117.8832, 34.0976], [-117.8896, 34.0994], [-117.8955, 34.0969], [-117.8976, 34.0916], [-117.8946, 34.0866], [-117.8882, 34.0849], [-117.8823, 34.0874]]], [[[-117.9035, 34.1291], [-117.8988, 34.1327], [-117.8927, 34.1296], [-117.8863, 34.1311], [-117.883, 34.1359], [-117.8848, 34.1413], [-117.8914, 34.1441], [-117.8963, 34.1429], [-117.8995, 34.14], [-117.9056, 34.1431], [-117.912, 34.1416], [-117.9153, 34.1367], [-117.914, 34.132], [-117.9093, 34.129], [-117.9035, 34.1291]]], [[[-117.9163, 33.8635], [-117.9136, 33.8685], [-117.916, 33.8737], [-117.9221, 33.876], [-117.9283, 33.8739], [-117.931, 33.8689], [-117.9286, 33.8637], [-117.9225, 33.8614], [-117.9163, 33.8635]]], [[[-117.9265, 34.1238], [-117.9238, 34.1289], [-117.9262, 34.1341], [-117.9323, 34.1363], [-117.9385, 34.1343], [-117.9412, 34.1292], [-117.9388, 34.124], [-117.9327, 34.1218], [-117.9265, 34.1238]]], [[[-117.9508, 34.0817], [-117.9487, 34.087], [-117.9517, 34.0919], [-117.9581, 34.0937], [-117.964, 34.0911], [-117.9661, 34.0859], [-117.9631, 34.0809], [-117.9567, 34.0792], [-117.9508, 34.0817]]], [[[-117.9616, 34.1273], [-117.959, 34.1324], [-117.9614, 34.1375], [-117.9675, 34.1398], [-117.9737, 34.1378], [-117.9764, 34.1327], [-117.974, 34.1275], [-117.9679, 34.1253], [-117.9616, 34.1273]]], [[[-117.9803, 33.8712], [-117.9782, 33.8765], [-117.9812, 33.8815], [-117.9875, 33.8832], [-117.9935, 33.8807], [-117.9955, 33.8754], [-117.9925, 33.8705], [-117.9862, 33.8687], [-117.9803, 33.8712]]], [[[-117.9974, 34.1279], [-117.9948, 34.133], [-117.9972, 34.1382], [-118.0033, 34.1404], [-118.0095, 34.1384], [-118.0122, 34.1333], [-118.0098, 34.1281], [-118.0037, 34.1259], [-117.9974, 34.1279]]], [[[-118.0226, 34.1381], [-118.0205, 34.1434], [-118.0235, 34.1484], [-118.0299, 34.1501], [-118.0358, 34.1476], [-118.0379, 34.1423], [-118.0349, 34.1373], [-118.0285, 34.1356], [-118.0226, 34.1381]]], [[[-118.0289, 34.0721], [-118.0268, 34.0774], [-118.0298, 34.0823], [-118.0362, 34.084], [-118.0421, 34.0815], [-118.0442, 34.0762], [-118.0412, 34.0713], [-118.0348, 34.0696], [-118.0289, 34.0721]]], [[[-118.0541, 33.911], [-118.0515, 33.9161], [-118.0539, 33.9212], [-118.06, 33.9235], [-118.0662, 33.9214], [-118.0689, 33.9164], [-118.0664, 33.9112], [-118.0603, 33.9089], [-118.0541, 33.911]]], [[[-118.0752, 34.1425], [-118.0725, 34.1476], [-118.0749, 34.1528], [-118.081, 34.155], [-118.0873, 34.153], [-118.0899, 34.1479], [-118.0875, 34.1427], [-118.0814, 34.1405], [-118.0752, 34.1425]]], [[[-118.0981, 33.9093], [-118.096, 33.9146], [-118.0991, 33.9195], [-118.1054, 33.9213], [-118.1113, 33.9187], [-118.1134, 33.9135], [-118.1104, 33.9085], [-118.104, 33.9068], [-118.0981, 33.9093]]], [[[-118.1415, 34.1288], [-118.1395, 34.1327], [-118.1411, 34.1378], [-118.1388, 34.148], [-118.1349, 34.1452], [-118.1299, 34.1447], [-118.1253, 34.1466], [-118.1228, 34.1506], [-118.1186, 34.1461], [-118.1112, 34.1457], [-118.1058, 34.1509], [-118.1081, 34.1574], [-118.1116, 34.1593], [-118.1167, 34.1594], [-118.121, 34.1571], [-118.1229, 34.1536], [-118.1264, 34.1578], [-118.1321, 34.159], [-118.1374, 34.157], [-118.1401, 34.1522], [-118.1465, 34.1556], [-118.1536, 34.1536], [-118.1562, 34.1492], [-118.1563, 34.1309], [-118.15, 34.1264], [-118.1458, 34.1265], [-118.1415, 34.1288]]], [[[-118.119, 34.0022], [-118.1169, 34.0075], [-118.12, 34.0125], [-118.1263, 34.0142], [-118.1322, 34.0117], [-118.1343, 34.0064], [-118.1313, 34.0014], [-118.1249, 33.9997], [-118.119, 34.0022]]], [[[-118.1122, 34.4926], [-118.1095, 34.4977], [-118.112, 34.5029], [-118.1181, 34.5051], [-118.1244, 34.5031], [-118.1271, 34.498], [-118.1246, 34.4928], [-118.1185, 34.4906], [-118.1122, 34.4926]]], [[[-118.1132, 34.5855], [-118.1105, 34.5906], [-118.113, 34.5958], [-118.1191, 34.598], [-118.1254, 34.596], [-118.1281, 34.5909], [-118.1256, 34.5857], [-118.1195, 34.5835], [-118.1132, 34.5855]]], [[[-118.134, 33.9084], [-118.1319, 33.9136], [-118.1349, 33.9186], [-118.1413, 33.9203], [-118.1472, 33.9178], [-118.1493, 33.9125], [-118.1462, 33.9076], [-118.1399, 33.9058], [-118.134, 33.9084]]], [[[-118.1377, 33.9855], [-118.1351, 33.9906], [-118.1375, 33.9958], [-118.1436, 33.998], [-118.1498, 33.996], [-118.1525, 33.9909], [-118.1501, 33.9857], [-118.1439, 33.9835], [-118.1377, 33.9855]]], [[[-118.1294, 34.6919], [-118.1274, 34.6971], [-118.1304, 34.7021], [-118.1368, 34.7038], [-118.1428, 34.7013], [-118.1449, 34.696], [-118.1418, 34.6911], [-118.1354, 34.6894], [-118.1294, 34.6919]]], [[[-118.1692, 34.0261], [-118.1498, 34.0273], [-118.146, 34.0318], [-118.1471, 34.0373], [-118.1534, 34.0406], [-118.1728, 34.0394], [-118.1764, 34.0356], [-118.1765, 34.0313], [-118.1738, 34.0278], [-118.1692, 34.0261]]], [[[-118.1518, 34.11], [-118.1492, 34.115], [-118.1516, 34.1202], [-118.1577, 34.1224], [-118.1639, 34.1204], [-118.1666, 34.1153], [-118.1642, 34.1102], [-118.1581, 34.1079], [-118.1518, 34.11]]], [[[-118.1656, 34.0569], [-118.1629, 34.062], [-118.1654, 34.0671], [-118.1715, 34.0694], [-118.1777, 34.0673], [-118.1804, 34.0623], [-118.1779, 34.0571], [-118.1718, 34.0549], [-118.1656, 34.0569]]], [[[-118.1948, 33.761], [-118.1847, 33.7626], [-118.1807, 33.7679], [-118.1823, 33.7777], [-118.1808, 33.781], [-118.1808, 33.7904], [-118.1837, 33.7946], [-118.1884, 33.7963], [-118.1933, 33.7956], [-118.197, 33.7926], [-118.1973, 33.7789], [-118.2008, 33.7764], [-118.2023, 33.7731], [-118.2007, 33.7648], [-118.1948, 33.761]]], [[[-118.1832, 33.8024], [-118.1812, 33.8062], [-118.1821, 33.8104], [-118.1856, 33.8134], [-118.1905, 33.8143], [-118.1875, 33.819], [-118.1888, 33.8238], [-118.1942, 33.827], [-118.2008, 33.826], [-118.2041, 33.8228], [-118.2046, 33.8186], [-118.2017, 33.8143], [-118.1954, 33.8126], [-118.1985, 33.8079], [-118.1971, 33.8032], [-118.1909, 33.7999], [-118.1832, 33.8024]]], [[[-118.1856, 34.0296], [-118.1835, 34.0349], [-118.1865, 34.0398], [-118.1929, 34.0415], [-118.1988, 34.039], [-118.2009, 34.0337], [-118.1978, 34.0288], [-118.1915, 34.0271], [-118.1856, 34.0296]]], [[[-118.1866, 34.106], [-118.1839, 34.111], [-118.1863, 34.1162], [-118.1924, 34.1184], [-118.1987, 34.1164], [-118.2013, 34.1113], [-118.1989, 34.1061], [-118.1928, 34.1039], [-118.1866, 34.106]]], [[[-118.2044, 33.8435], [-118.2024, 33.8488], [-118.2054, 33.8537], [-118.2117, 33.8555], [-118.2176, 33.8529], [-118.2197, 33.8476], [-118.2167, 33.8427], [-118.2103, 33.841], [-118.2044, 33.8435]]], [[[-118.2033, 33.9202], [-118.2013, 33.9255], [-118.2043, 33.9304], [-118.2106, 33.9321], [-118.2166, 33.9296], [-118.2186, 33.9243], [-118.2156, 33.9194], [-118.2093, 33.9176], [-118.2033, 33.9202]]], [[[-118.215, 34.0753], [-118.2118, 34.0801], [-118.2052, 34.0843], [-118.2058, 34.091], [-118.2013, 34.0925], [-118.1984, 34.096], [-118.1989, 34.1015], [-118.204, 34.1051], [-118.2091, 34.1052], [-118.2133, 34.1029], [-118.2154, 34.0991], [-118.2141, 34.0944], [-118.2193, 34.0925], [-118.2219, 34.0881], [-118.2258, 34.0866], [-118.2287, 34.0832], [-118.2288, 34.079], [-118.2254, 34.075], [-118.2197, 34.0737], [-118.215, 34.0753]]], [[[-118.3023, 34.0136], [-118.3002, 34.0178], [-118.2989, 34.0143], [-118.295, 34.0116], [-118.2825, 34.0115], [-118.2721, 34.0169], [-118.2694, 34.0227], [-118.2642, 34.0273], [-118.2633, 34.0235], [-118.2605, 34.0209], [-118.2565, 34.0196], [-118.2518, 34.0203], [-118.2508, 34.0163], [-118.2481, 34.0137], [-118.2399, 34.0129], [-118.2351, 34.0167], [-118.2353, 34.023], [-118.2404, 34.0266], [-118.2468, 34.0262], [-118.2482, 34.0307], [-118.252, 34.0335], [-118.2562, 34.034], [-118.2607, 34.0327], [-118.2575, 34.0415], [-118.2489, 34.0423], [-118.2453, 34.044], [-118.2389, 34.0416], [-118.233, 34.0434], [-118.2286, 34.0407], [-118.2176, 34.0402], [-118.2143, 34.0374], [-118.2094, 34.0365], [-118.2025, 34.0402], [-118.2019, 34.0464], [-118.2066, 34.0504], [-118.2121, 34.0508], [-118.217, 34.0541], [-118.2249, 34.0548], [-118.229, 34.0684], [-118.234, 34.0709], [-118.239, 34.0706], [-118.2435, 34.0674], [-118.2443, 34.062], [-118.2555, 34.0612], [-118.2601, 34.0558], [-118.2655, 34.0533], [-118.2675, 34.0479], [-118.2733, 34.0449], [-118.2746, 34.039], [-118.2808, 34.0333], [-118.2823, 34.0285], [-118.2858, 34.0255], [-118.2955, 34.0247], [-118.2987, 34.0224], [-118.3002, 34.0188], [-118.3021, 34.0228], [-118.3062, 34.0252], [-118.3113, 34.0253], [-118.3155, 34.023], [-118.3176, 34.0177], [-118.3146, 34.0128], [-118.3082, 34.0111], [-118.3023, 34.0136]]], [[[-118.2165, 33.8709], [-118.2138, 33.8759], [-118.2162, 33.8811], [-118.2223, 33.8833], [-118.2285, 33.8813], [-118.2312, 33.8762], [-118.2288, 33.871], [-118.2227, 33.8688], [-118.2165, 33.8709]]], [[[-118.2182, 33.8923], [-118.2156, 33.8974], [-118.218, 33.9025], [-118.2241, 33.9047], [-118.2303, 33.9027], [-118.2329, 33.8976], [-118.2305, 33.8925], [-118.2244, 33.8902], [-118.2182, 33.8923]]], [[[-118.2315, 33.9228], [-118.2289, 33.9279], [-118.2313, 33.9331], [-118.2374, 33.9353], [-118.2436, 33.9333], [-118.2463, 33.9282], [-118.2438, 33.923], [-118.2377, 33.9208], [-118.2315, 33.9228]]], [[[-118.2371, 33.937], [-118.2345, 33.9421], [-118.2369, 33.9473], [-118.243, 33.9495], [-118.2492, 33.9474], [-118.2519, 33.9424], [-118.2494, 33.9372], [-118.2433, 33.935], [-118.2371, 33.937]]], [[[-118.2366, 33.9549], [-118.2348, 33.9616], [-118.2369, 33.9646], [-118.2413, 33.9667], [-118.2357, 33.9702], [-118.2349, 33.9757], [-118.239, 33.9801], [-118.2456, 33.9807], [-118.2499, 33.9784], [-118.2518, 33.9753], [-118.2506, 33.9698], [-118.2452, 33.9667], [-118.2508, 33.9631], [-118.2516, 33.9576], [-118.2489, 33.9541], [-118.2451, 33.9525], [-118.2408, 33.9526], [-118.2366, 33.9549]]], [[[-118.2374, 33.9835], [-118.2351, 33.9865], [-118.235, 33.9907], [-118.2371, 33.9938], [-118.2415, 33.9958], [-118.2357, 33.9994], [-118.2349, 34.0049], [-118.2391, 34.0093], [-118.2457, 34.0099], [-118.2499, 34.0076], [-118.2518, 34.0045], [-118.2506, 33.999], [-118.2452, 33.9958], [-118.251, 33.9923], [-118.2518, 33.9868], [-118.2461, 33.9819], [-118.2419, 33.9816], [-118.2374, 33.9835]]], [[[-118.2523, 34.1186], [-118.2502, 34.1239], [-118.2533, 34.1289], [-118.2596, 34.1306], [-118.2656, 34.128], [-118.2676, 34.1228], [-118.2646, 34.1178], [-118.2582, 34.1161], [-118.2523, 34.1186]]], [[[-118.2592, 33.9222], [-118.2569, 33.9252], [-118.2568, 33.9294], [-118.2596, 33.933], [-118.2634, 33.9346], [-118.2692, 33.9339], [-118.2728, 33.931], [-118.2784, 33.9356], [-118.2864, 33.9344], [-118.2933, 33.9358], [-118.2978, 33.9339], [-118.3002, 33.9302], [-118.2991, 33.9248], [-118.2936, 33.9216], [-118.2864, 33.923], [-118.2796, 33.9216], [-118.2735, 33.9252], [-118.2709, 33.9219], [-118.2671, 33.9204], [-118.2592, 33.9222]]], [[[-118.2688, 34.0511], [-118.2662, 34.0562], [-118.268, 34.0609], [-118.2747, 34.0636], [-118.2816, 34.0609], [-118.2827, 34.0666], [-118.2884, 34.0698], [-118.2845, 34.0724], [-118.283, 34.0764], [-118.2844, 34.0804], [-118.2884, 34.0832], [-118.2846, 34.0858], [-118.2831, 34.0891], [-118.2844, 34.0938], [-118.2832, 34.099], [-118.2861, 34.1032], [-118.2933, 34.1048], [-118.2994, 34.1011], [-118.3018, 34.1068], [-118.308, 34.109], [-118.3135, 34.1074], [-118.3167, 34.1032], [-118.3195, 34.1072], [-118.3242, 34.1088], [-118.3319, 34.1062], [-118.3359, 34.1085], [-118.3401, 34.1087], [-118.3452, 34.1062], [-118.3471, 34.1031], [-118.3467, 34.0989], [-118.3404, 34.0945], [-118.3354, 34.0948], [-118.3318, 34.0969], [-118.3279, 34.0947], [-118.3228, 34.0947], [-118.3185, 34.0969], [-118.3166, 34.1002], [-118.3138, 34.0962], [-118.3091, 34.0945], [-118.3041, 34.0953], [-118.3004, 34.0983], [-118.2991, 34.0938], [-118.3001, 34.0879], [-118.2951, 34.0832], [-118.2993, 34.0801], [-118.3003, 34.0752], [-118.298, 34.0715], [-118.2934, 34.0694], [-118.2964, 34.0677], [-118.3086, 34.0689], [-118.3142, 34.0674], [-118.3175, 34.0618], [-118.3144, 34.0562], [-118.3098, 34.0545], [-118.3008, 34.0545], [-118.2951, 34.0568], [-118.2877, 34.0557], [-118.2833, 34.0581], [-118.283, 34.0537], [-118.2791, 34.05], [-118.2733, 34.0492], [-118.2688, 34.0511]]], [[[-118.3068, 34.1737], [-118.3041, 34.1788], [-118.3066, 34.184], [-118.3127, 34.1862], [-118.3189, 34.1842], [-118.3216, 34.1791], [-118.3191, 34.1739], [-118.313, 34.1717], [-118.3068, 34.1737]]], [[[-118.3205, 33.92], [-118.3178, 33.9251], [-118.3203, 33.9302], [-118.3264, 33.9325], [-118.3326, 33.9304], [-118.3353, 33.9253], [-118.3328, 33.9202], [-118.3267, 33.9179], [-118.3205, 33.92]]], [[[-118.33, 33.97], [-118.3274, 33.9758], [-118.3307, 33.9809], [-118.3242, 33.9835], [-118.3221, 33.9888], [-118.3252, 33.9937], [-118.3315, 33.9954], [-118.3384, 33.9917], [-118.3394, 33.9869], [-118.3362, 33.9825], [-118.3427, 33.98], [-118.3448, 33.9747], [-118.3429, 33.9707], [-118.3395, 33.9686], [-118.3345, 33.9681], [-118.33, 33.97]]], [[[-118.3462, 34.0167], [-118.3417, 34.0177], [-118.3394, 34.016], [-118.343, 34.0131], [-118.344, 34.009], [-118.3377, 33.9984], [-118.3313, 33.9967], [-118.3254, 33.9992], [-118.3236, 34.0059], [-118.3308, 34.0157], [-118.3269, 34.0193], [-118.3263, 34.0234], [-118.3316, 34.0292], [-118.3395, 34.0287], [-118.3442, 34.0311], [-118.3498, 34.0305], [-118.3559, 34.032], [-118.3606, 34.0305], [-118.3634, 34.027], [-118.3665, 34.0319], [-118.372, 34.0336], [-118.3768, 34.0325], [-118.3803, 34.0287], [-118.3822, 34.0324], [-118.3855, 34.0345], [-118.3914, 34.0349], [-118.3962, 34.032], [-118.3993, 34.0353], [-118.4041, 34.0366], [-118.4097, 34.035], [-118.4128, 34.0309], [-118.4116, 34.0254], [-118.4061, 34.0222], [-118.4011, 34.0226], [-118.3971, 34.0252], [-118.3932, 34.0216], [-118.3874, 34.0208], [-118.3836, 34.0222], [-118.3808, 34.0255], [-118.3778, 34.0208], [-118.3714, 34.0191], [-118.3667, 34.0207], [-118.3638, 34.0241], [-118.3601, 34.0188], [-118.3462, 34.0167]]], [[[-118.3456, 33.9282], [-118.3429, 33.9333], [-118.3453, 33.9384], [-118.3515, 33.9407], [-118.3576, 33.9386], [-118.3603, 33.9335], [-118.3579, 33.9284], [-118.3518, 33.9262], [-118.3456, 33.9282]]], [[[-118.3449, 33.9625], [-118.3428, 33.9677], [-118.3459, 33.9727], [-118.3522, 33.9744], [-118.3581, 33.9719], [-118.3602, 33.9666], [-118.3571, 33.9616], [-118.3508, 33.9599], [-118.3449, 33.9625]]], [[[-118.3459, 34.1881], [-118.344, 34.1941], [-118.3486, 34.1992], [-118.3428, 34.2023], [-118.3414, 34.2077], [-118.345, 34.2123], [-118.3516, 34.2135], [-118.3561, 34.2116], [-118.3583, 34.2086], [-118.3581, 34.2037], [-118.354, 34.1999], [-118.3598, 34.1969], [-118.3612, 34.1915], [-118.3589, 34.1878], [-118.3553, 34.1859], [-118.3502, 34.1858], [-118.3459, 34.1881]]], [[[-118.3561, 34.1353], [-118.354, 34.1406], [-118.357, 34.1455], [-118.3634, 34.1472], [-118.3693, 34.1447], [-118.3714, 34.1394], [-118.3683, 34.1345], [-118.362, 34.1328], [-118.3561, 34.1353]]], [[[-118.3626, 33.8899], [-118.3605, 33.8952], [-118.3636, 33.9002], [-118.3699, 33.9019], [-118.3758, 33.8993], [-118.3779, 33.8941], [-118.3748, 33.8891], [-118.3685, 33.8874], [-118.3626, 33.8899]]], [[[-118.3721, 33.9409], [-118.3702, 33.944], [-118.37, 33.95], [-118.3723, 33.955], [-118.3672, 33.9579], [-118.3657, 33.9626], [-118.3687, 33.9676], [-118.3751, 33.9693], [-118.3798, 33.9677], [-118.3824, 33.9649], [-118.3829, 33.9607], [-118.3808, 33.9571], [-118.3866, 33.953], [-118.3874, 33.945], [-118.3855, 33.9411], [-118.3814, 33.9387], [-118.3763, 33.9386], [-118.3721, 33.9409]]], [[[-118.3765, 33.9006], [-118.3744, 33.9059], [-118.3758, 33.9092], [-118.3794, 33.9119], [-118.3778, 33.9159], [-118.3796, 33.9204], [-118.3789, 33.9225], [-118.3711, 33.9244], [-118.3684, 33.9295], [-118.3709, 33.9347], [-118.377, 33.9369], [-118.3832, 33.9348], [-118.3858, 33.9303], [-118.393, 33.9289], [-118.3963, 33.9233], [-118.3946, 33.9134], [-118.3902, 33.9095], [-118.3918, 33.9054], [-118.3899, 33.9008], [-118.3833, 33.898], [-118.3765, 33.9006]]], [[[-118.3673, 34.2172], [-118.3647, 34.2223], [-118.3671, 34.2274], [-118.3732, 34.2297], [-118.3795, 34.2276], [-118.3821, 34.2225], [-118.3797, 34.2174], [-118.3735, 34.2151], [-118.3673, 34.2172]]], [[[-118.3707, 34.1633], [-118.3681, 34.1684], [-118.3705, 34.1735], [-118.3767, 34.1758], [-118.3829, 34.1737], [-118.3855, 34.1686], [-118.3831, 34.1635], [-118.377, 34.1613], [-118.3707, 34.1633]]], [[[-118.4335, 34.0282], [-118.4282, 34.0302], [-118.4222, 34.0298], [-118.4179, 34.0321], [-118.4159, 34.0374], [-118.4189, 34.0423], [-118.4253, 34.044], [-118.4307, 34.042], [-118.4366, 34.0424], [-118.4409, 34.0401], [-118.4429, 34.0362], [-118.442, 34.0321], [-118.4385, 34.0291], [-118.4335, 34.0282]]], [[[-118.4272, 34.4084], [-118.4252, 34.4137], [-118.4282, 34.4186], [-118.4346, 34.4203], [-118.4406, 34.4178], [-118.4426, 34.4125], [-118.4396, 34.4076], [-118.4332, 34.4059], [-118.4272, 34.4084]]], [[[-118.4416, 34.2069], [-118.4395, 34.2122], [-118.4426, 34.2171], [-118.4489, 34.2188], [-118.4549, 34.2163], [-118.4569, 34.211], [-118.4539, 34.206], [-118.4475, 34.2043], [-118.4416, 34.2069]]], [[[-118.4853, 34.0088], [-118.4829, 34.0125], [-118.4831, 34.0163], [-118.4772, 34.0164], [-118.472, 34.0212], [-118.4644, 34.0219], [-118.4615, 34.0245], [-118.4604, 34.0281], [-118.4547, 34.0246], [-118.4475, 34.026], [-118.4442, 34.0309], [-118.4461, 34.0362], [-118.4494, 34.0384], [-118.4545, 34.0388], [-118.4595, 34.0364], [-118.4616, 34.0316], [-118.4657, 34.0347], [-118.4707, 34.0351], [-118.4752, 34.0332], [-118.4775, 34.03], [-118.4819, 34.0303], [-118.4858, 34.0288], [-118.4887, 34.0254], [-118.4886, 34.0209], [-118.4961, 34.0201], [-118.5001, 34.0141], [-118.4987, 34.0101], [-118.4948, 34.0074], [-118.4898, 34.0069], [-118.4853, 34.0088]]], [[[-118.4441, 34.2874], [-118.4414, 34.2925], [-118.4439, 34.2976], [-118.45, 34.2998], [-118.4563, 34.2978], [-118.4589, 34.2927], [-118.4565, 34.2875], [-118.4503, 34.2853], [-118.4441, 34.2874]]], [[[-118.4627, 34.4041], [-118.4607, 34.4094], [-118.4637, 34.4143], [-118.4701, 34.416], [-118.4761, 34.4135], [-118.4781, 34.4082], [-118.4751, 34.4033], [-118.4687, 34.4016], [-118.4627, 34.4041]]], [[[-118.5181, 34.4088], [-118.5161, 34.414], [-118.5192, 34.419], [-118.5255, 34.4207], [-118.5315, 34.4181], [-118.5335, 34.4128], [-118.5305, 34.4079], [-118.5241, 34.4062], [-118.5181, 34.4088]]], [[[-118.5212, 34.3747], [-118.5186, 34.3798], [-118.521, 34.385], [-118.5272, 34.3872], [-118.5334, 34.3851], [-118.5361, 34.38], [-118.5336, 34.3749], [-118.5274, 34.3727], [-118.5212, 34.3747]]], [[[-118.539, 34.2254], [-118.5364, 34.2305], [-118.5388, 34.2357], [-118.545, 34.2379], [-118.5512, 34.2358], [-118.5538, 34.2307], [-118.5514, 34.2256], [-118.5452, 34.2234], [-118.539, 34.2254]]], [[[-118.5933, 34.248], [-118.5907, 34.2531], [-118.5931, 34.2582], [-118.5993, 34.2604], [-118.6055, 34.2584], [-118.6081, 34.2533], [-118.6057, 34.2481], [-118.5995, 34.2459], [-118.5933, 34.248]]], [[[-118.6895, 34.2652], [-118.6868, 34.2703], [-118.6893, 34.2755], [-118.6954, 34.2777], [-118.7016, 34.2756], [-118.7043, 34.2705], [-118.7018, 34.2654], [-118.6957, 34.2632], [-118.6895, 34.2652]]], [[[-118.8712, 34.2807], [-118.8692, 34.2859], [-118.8723, 34.2909], [-118.8786, 34.2925], [-118.8846, 34.29], [-118.8866, 34.2847], [-118.8835, 34.2798], [-118.8771, 34.2781], [-118.8712, 34.2807]]], [[[-119.0271, 34.212], [-119.0251, 34.2173], [-119.0282, 34.2222], [-119.0346, 34.2239], [-119.0405, 34.2213], [-119.0425, 34.216], [-119.0394, 34.2111], [-119.0331, 34.2094], [-119.0271, 34.212]]], [[[-119.1702, 34.1941], [-119.1676, 34.1992], [-119.1701, 34.2044], [-119.1762, 34.2065], [-119.1824, 34.2044], [-119.185, 34.1993], [-119.1825, 34.1942], [-119.1764, 34.192], [-119.1702, 34.1941]]], [[[-119.1983, 34.2461], [-119.1963, 34.2514], [-119.1994, 34.2564], [-119.2058, 34.258], [-119.2117, 34.2554], [-119.2137, 34.2501], [-119.2106, 34.2452], [-119.2042, 34.2436], [-119.1983, 34.2461]]]]}}]}