{
"type": "FeatureCollection",
"name": "counterfactual_stations",
"crs": { "type": "name", "properties": { "name": "urn:ogc:def:crs:OGC:1.3:CRS84" } },
"features": [
{ "type": "Feature", "properties": { "station_number": 0, "station_type": "d_line_section_2", "name": "Wilshire/Rodeo", "population_covered": 0, "cumulative_coverage": 0, "lat": 34.0607, "lng": -118.3997 }, "geometry": { "type": "Point", "coordinates": [ -118.3997, 34.0607 ] } },
{ "type": "Feature", "properties": { "station_number": 0, "station_type": "d_line_section_2", "name": "Century City/Constellation", "population_covered": 0, "cumulative_coverage": 0, "lat": 34.0553, "lng": -118.4167 }, "geometry": { "type": "Point", "coordinates": [ -118.4167, 34.0553 ] } },
{ "type": "Feature", "properties": { "station_number": 0, "station_type": "d_line_section_3", "name": "Westwood/UCLA", "population_covered": 0, "cumulative_coverage": 0, "lat": 34.063, "lng": -118.444 }, "geometry": { "type": "Point", "coordinates": [ -118.444, 34.063 ] } },
{ "type": "Feature", "properties": { "station_number": 0, "station_type": "d_line_section_3", "name": "Westwood/VA Hospital", "population_covered": 0, "cumulative_coverage": 0, "lat": 34.0502, "lng": -118.4522 }, "geometry": { "type": "Point", "coordinates": [ -118.4522, 34.0502 ] } },
{ "type": "Feature", "properties": { "station_number": 1, "station_type": "hypothetical", "name": null, "population_covered": 61773, "cumulative_coverage": 61773, "lat": 33.77944, "lng": -118.16683 }, "geometry": { "type": "Point", "coordinates": [ -118.166830131454191, 33.779439143527291 ] } },
{ "type": "Feature", "properties": { "station_number": 2, "station_type": "hypothetical", "name": null, "population_covered": 61023, "cumulative_coverage": 122796, "lat": 34.22683, "lng": -118.45943 }, "geometry": { "type": "Point", "coordinates": [ -118.459426974976523, 34.226828707877495 ] } },
{ "type": "Feature", "properties": { "station_number": 3, "station_type": "hypothetical", "name": null, "population_covered": 54527, "cumulative_coverage": 177323, "lat": 34.04225, "lng": -118.29283 }, "geometry": { "type": "Point", "coordinates": [ -118.29282987087764, 34.042247124970963 ] } },
{ "type": "Feature", "properties": { "station_number": 4, "station_type": "hypothetical", "name": null, "population_covered": 54113, "cumulative_coverage": 231436, "lat": 33.99989, "lng": -118.27124 }, "geometry": { "type": "Point", "coordinates": [ -118.2712425839605, 33.999892564304403 ] } },
{ "type": "Feature", "properties": { "station_number": 5, "station_type": "hypothetical", "name": null, "population_covered": 53719, "cumulative_coverage": 285155, "lat": 34.14301, "lng": -118.2531 }, "geometry": { "type": "Point", "coordinates": [ -118.253098995237067, 34.143014833820324 ] } },
{ "type": "Feature", "properties": { "station_number": 6, "station_type": "hypothetical", "name": null, "population_covered": 52248, "cumulative_coverage": 337403, "lat": 33.97469, "lng": -118.28117 }, "geometry": { "type": "Point", "coordinates": [ -118.281165052238421, 33.97468798996438 ] } },
{ "type": "Feature", "properties": { "station_number": 7, "station_type": "hypothetical", "name": null, "population_covered": 48621, "cumulative_coverage": 386024, "lat": 33.90142, "lng": -118.33864 }, "geometry": { "type": "Point", "coordinates": [ -118.338636444371602, 33.901420011157995 ] } },
{ "type": "Feature", "properties": { "station_number": 8, "station_type": "hypothetical", "name": null, "population_covered": 48193, "cumulative_coverage": 434217, "lat": 34.07147, "lng": -118.26218 }, "geometry": { "type": "Point", "coordinates": [ -118.26217680107473, 34.071467060690644 ] } },
{ "type": "Feature", "properties": { "station_number": 9, "station_type": "hypothetical", "name": null, "population_covered": 46345, "cumulative_coverage": 480562, "lat": 33.97194, "lng": -118.21529 }, "geometry": { "type": "Point", "coordinates": [ -118.215288143666896, 33.971943055768818 ] } },
{ "type": "Feature", "properties": { "station_number": 10, "station_type": "hypothetical", "name": null, "population_covered": 46127, "cumulative_coverage": 526689, "lat": 34.08458, "lng": -118.31443 }, "geometry": { "type": "Point", "coordinates": [ -118.314431339491577, 34.084583433696807 ] } },
{ "type": "Feature", "properties": { "station_number": 11, "station_type": "hypothetical", "name": null, "population_covered": 45536, "cumulative_coverage": 572225, "lat": 33.94234, "lng": -118.20782 }, "geometry": { "type": "Point", "coordinates": [ -118.207822925408067, 33.942344601409211 ] } },
{ "type": "Feature", "properties": { "station_number": 12, "station_type": "hypothetical", "name": null, "population_covered": 44146, "cumulative_coverage": 616371, "lat": 33.97796, "lng": -118.18421 }, "geometry": { "type": "Point", "coordinates": [ -118.184208233775962, 33.977956831630564 ] } },
{ "type": "Feature", "properties": { "station_number": 13, "station_type": "hypothetical", "name": null, "population_covered": 43629, "cumulative_coverage": 660000, "lat": 33.9535, "lng": -118.27038 }, "geometry": { "type": "Point", "coordinates": [ -118.270377781254979, 33.953501598357768 ] } },
{ "type": "Feature", "properties": { "station_number": 14, "station_type": "hypothetical", "name": null, "population_covered": 41011, "cumulative_coverage": 701011, "lat": 34.19297, "lng": -118.43446 }, "geometry": { "type": "Point", "coordinates": [ -118.434458888378344, 34.192968717533759 ] } },
{ "type": "Feature", "properties": { "station_number": 15, "station_type": "hypothetical", "name": null, "population_covered": 39528, "cumulative_coverage": 740539, "lat": 34.09129, "lng": -118.35963 }, "geometry": { "type": "Point", "coordinates": [ -118.359627863838853, 34.091294689644052 ] } },
{ "type": "Feature", "properties": { "station_number": 16, "station_type": "hypothetical", "name": null, "population_covered": 38910, "cumulative_coverage": 779449, "lat": 33.99587, "lng": -118.29196 }, "geometry": { "type": "Point", "coordinates": [ -118.29195586475339, 33.995869837750398 ] } },
{ "type": "Feature", "properties": { "station_number": 17, "station_type": "hypothetical", "name": null, "population_covered": 38219, "cumulative_coverage": 817668, "lat": 34.0446, "lng": -118.3206 }, "geometry": { "type": "Point", "coordinates": [ -118.320601041704194, 34.044604799130937 ] } },
{ "type": "Feature", "properties": { "station_number": 18, "station_type": "hypothetical", "name": null, "population_covered": 38168, "cumulative_coverage": 855836, "lat": 33.85351, "lng": -118.18545 }, "geometry": { "type": "Point", "coordinates": [ -118.185449405487134, 33.853510909982056 ] } },
{ "type": "Feature", "properties": { "station_number": 19, "station_type": "hypothetical", "name": null, "population_covered": 37609, "cumulative_coverage": 893445, "lat": 33.95587, "lng": -118.29813 }, "geometry": { "type": "Point", "coordinates": [ -118.29812936752144, 33.955871446370708 ] } },
{ "type": "Feature", "properties": { "station_number": 20, "station_type": "hypothetical", "name": null, "population_covered": 36444, "cumulative_coverage": 929889, "lat": 34.19528, "lng": -118.46225 }, "geometry": { "type": "Point", "coordinates": [ -118.462251855479323, 34.195281740245015 ] } }
]
}
